{
    "links": {
        "self": "http://www.neowsapp.com/rest/v1/neo/3946725?api_key=iIulBulltgU6a56xZRHN4H3l9WmuAYTsLGpBGhQ2"
    },
    "id": "3946725",
    "neo_reference_id": "3946725",
    "name": "(2019 YV2)",
    "designation": "2019 YV2",
    "nasa_jpl_url": "http://ssd.jpl.nasa.gov/sbdb.cgi?sstr=3946725",
    "absolute_magnitude_h": 21.9,
    "estimated_diameter": {
        "kilometers": {
            "estimated_diameter_min": 0.1108038821,
            "estimated_diameter_max": 0.2477650126
        },
        "meters": {
            "estimated_diameter_min": 110.8038821264,
            "estimated_diameter_max": 247.7650126055
        },
        "miles": {
            "estimated_diameter_min": 0.068850319,
            "estimated_diameter_max": 0.1539539936
        },
        "feet": {
            "estimated_diameter_min": 363.5298086356,
            "estimated_diameter_max": 812.8773639568
        }
    },
    "is_potentially_hazardous_asteroid": false,
    "close_approach_data": [
        {
            "close_approach_date": "2018-11-01",
            "close_approach_date_full": "2018-Nov-01 20:10",
            "epoch_date_close_approach": 1541103000000,
            "relative_velocity": {
                "kilometers_per_second": "44.3471321436",
                "kilometers_per_hour": "159649.6757170727",
                "miles_per_hour": "99200.0998920889"
            },
            "miss_distance": {
                "astronomical": "0.3504795285",
                "lunar": "136.3365365865",
                "kilometers": "52430990.942204295",
                "miles": "32579107.058217471"
            },
            "orbiting_body": "Earth"
        },
        {
            "close_approach_date": "2019-12-29",
            "close_approach_date_full": "2019-Dec-29 04:04",
            "epoch_date_close_approach": 1577592240000,
            "relative_velocity": {
                "kilometers_per_second": "26.9718629621",
                "kilometers_per_hour": "97098.7066636525",
                "miles_per_hour": "60333.360259979"
            },
            "miss_distance": {
                "astronomical": "0.2349286101",
                "lunar": "91.3872293289",
                "kilometers": "35144819.673020487",
                "miles": "21837978.3043052406"
            },
            "orbiting_body": "Earth"
        },
        {
            "close_approach_date": "2021-05-27",
            "close_approach_date_full": "2021-May-27 16:06",
            "epoch_date_close_approach": 1622131560000,
            "relative_velocity": {
                "kilometers_per_second": "33.5248663831",
                "kilometers_per_hour": "120689.5189790225",
                "miles_per_hour": "74991.7736122709"
            },
            "miss_distance": {
                "astronomical": "0.1376919654",
                "lunar": "53.5621745406",
                "kilometers": "20598424.739953698",
                "miles": "12799267.6234811124"
            },
            "orbiting_body": "Venus"
        },
        {
            "close_approach_date": "2124-09-28",
            "close_approach_date_full": "2124-Sep-28 17:48",
            "epoch_date_close_approach": 4883219280000,
            "relative_velocity": {
                "kilometers_per_second": "41.4526199225",
                "kilometers_per_hour": "149229.4317208261",
                "miles_per_hour": "92725.3655045322"
            },
            "miss_distance": {
                "astronomical": "0.0673979013",
                "lunar": "26.2177836057",
                "kilometers": "10082582.476950231",
                "miles": "6265026.2380499478"
            },
            "orbiting_body": "Venus"
        },
        {
            "close_approach_date": "2126-01-01",
            "close_approach_date_full": "2126-Jan-01 02:52",
            "epoch_date_close_approach": 4922909520000,
            "relative_velocity": {
                "kilometers_per_second": "22.4128451545",
                "kilometers_per_hour": "80686.2425560268",
                "miles_per_hour": "50135.2933259935"
            },
            "miss_distance": {
                "astronomical": "0.4840104816",
                "lunar": "188.2800773424",
                "kilometers": "72406937.105034192",
                "miles": "44991584.4295761696"
            },
            "orbiting_body": "Earth"
        }
    ],
    "orbital_data": {
        "orbit_id": "5",
        "orbit_determination_date": "2020-01-04 05:13:37",
        "first_observation_date": "2019-12-23",
        "last_observation_date": "2020-01-04",
        "data_arc_in_days": 12,
        "observations_used": 54,
        "orbit_uncertainty": "9",
        "minimum_orbit_intersection": ".0705973",
        "jupiter_tisserand_invariant": "4.666",
        "epoch_osculation": "2458843.5",
        "eccentricity": ".8972034596418947",
        "semi_major_axis": "1.227261841265929",
        "inclination": "6.459906285152015",
        "ascending_node_longitude": "129.1530591243713",
        "orbital_period": "496.5972080020497",
        "perihelion_distance": ".1261582713956556",
        "perihelion_argument": "107.7137350273508",
        "aphelion_distance": "2.328365411136202",
        "perihelion_time": "2458891.095552699148",
        "mean_anomaly": "325.4963848052433",
        "mean_motion": ".7249335964823106",
        "equinox": "J2000",
        "orbit_class": {
            "orbit_class_type": "APO",
            "orbit_class_description": "Near-Earth asteroid orbits which cross the Earth’s orbit similar to that of 1862 Apollo",
            "orbit_class_range": "a (semi-major axis) > 1.0 AU; q (perihelion) < 1.017 AU"
        }
    },
    "is_sentry_object": false
}